"id","ident","type","name","latitude_deg","longitude_deg","elevation_ft","continent","iso_country","iso_region","municipality","scheduled_service","gps_code","iata_code","local_code","home_link","wikipedia_link","keywords"
6523,"00A","heliport","Total Rf Heliport",40.07080078125,-74.93360137939453,11,"NA","US","US-PA","Bensalem","no","00A",,"00A",,,
323361,"00AA","small_airport","Aero B Ranch Airport",38.704022,-101.473911,3435,"NA","US","US-KS","Leoti","no","00AA",,"00AA",,,
6524,"00AK","small_airport","Lowell Field",59.94919968,-151.695999146,450,"NA","US","US-AK","Anchor Point","no","00AK",,"00AK",,,
6525,"00AL","small_airport","Epps Airpark",34.86479949951172,-86.77030181884766,820,"NA","US","US-AL","Harvest","no","00AL",,"00AL",,,
6526,"00AR","closed","Newport Hospital & Clinic Heliport",35.6087,-91.254898,237,"NA","US","US-AR","Newport","no",,,,,,"00AR"
322127,"00AS","small_airport","Fulton Airport",34.9428028,-97.8180194,1100,"NA","US","US-OK","Alex","no","00AS",,"00AS",,,
6527,"00AZ","small_airport","Cordes Airport",34.305599212646484,-112.16500091552734,3810,"NA","US","US-AZ","Cordes","no","00AZ",,"00AZ",,,
6528,"00CA","small_airport","Goldstone /Gts/ Airport",35.350498199499995,-116.888000488,3038,"NA","US","US-CA","Barstow","no","00CA",,"00CA",,,
324424,"00CL","small_airport","Williams Ag Airport",39.427188,-121.763427,87,"NA","US","US-CA","Biggs","no","00CL",,"00CL",,,
322658,"00CN","heliport","Kitchen Creek Helibase Heliport",32.7273736,-116.4597417,3350,"NA","US","US-CA","Pine Valley","no","00CN",,"00CN",,,
6529,"00CO","closed","Cass Field",40.622202,-104.344002,4830,"NA","US","US-CO","Briggsdale","no",,,,,,"00CO"
6531,"00FA","small_airport","Grass Patch Airport",28.64550018310547,-82.21900177001953,53,"NA","US","US-FL","Bushnell","no","00FA",,"00FA",,,
6532,"00FD","heliport","Ringhaver Heliport",28.846599578857422,-82.34539794921875,25,"NA","US","US-FL","Riverview","no","00FD",,"00FD",,,
6533,"00FL","small_airport","River Oak Airport",27.230899810791016,-80.96920013427734,35,"NA","US","US-FL","Okeechobee","no","00FL",,"00FL",,,
6534,"00GA","small_airport","Lt World Airport",33.76750183105469,-84.06829833984375,700,"NA","US","US-GA","Lithonia","no","00GA",,"00GA",,,
6535,"00GE","heliport","Caffrey Heliport",33.88420104980469,-84.73390197753906,957,"NA","US","US-GA","Hiram","no","00GE",,"00GE",,,
6536,"00HI","heliport","Kaupulehu Heliport",19.832715,-155.980233,43,"NA","US","US-HI","Kailua/Kona","no","00HI",,"00HI",,,
6537,"00ID","small_airport","Delta Shores Airport",48.145301818847656,-116.21399688720703,2064,"NA","US","US-ID","Clark Fork","no","00ID",,"00ID",,,
322581,"00IG","small_airport","Goltl Airport",39.724028,-101.395994,3359,"NA","US","US-KS","McDonald","no","00IG",,"00IG",,,
6538,"00II","heliport","Bailey Generation Station Heliport",41.644500732421875,-87.122802734375,600,"NA","US","US-IN","Chesterton","no","00II",,"00II",,,
6539,"00IL","small_airport","Hammer Airport",41.97840118408203,-89.5604019165039,840,"NA","US","US-IL","Polo","no","00IL",,"00IL",,,
6540,"00IN","heliport","St Mary Medical Center Heliport",41.51139831542969,-87.2605972290039,634,"NA","US","US-IN","Hobart","no","00IN",,"00IN",,,
6541,"00IS","small_airport","Hayenga's Cant Find Farms Airport",40.02560043334961,-89.1229019165039,820,"NA","US","US-IL","Kings","no","00IS",,"00IS",,,
6542,"00KS","small_airport","Hayden Farm Airport",38.72779846191406,-94.93049621582031,1100,"NA","US","US-KS","Gardner","no","00KS",,"00KS",,,
6543,"00KY","small_airport","Robbins Roost Airport",37.409400939941406,-84.61969757080078,1265,"NA","US","US-KY","Stanford","no","00KY",,"00KY",,,
45437,"00LA","heliport","Shell Chemical East Site Heliport",30.191944,-90.980833,15,"NA","US","US-LA","Gonzales","no","00LA",,"00LA",,,
6544,"00LL","heliport","Ac & R Components Heliport",39.66529846191406,-89.70559692382812,600,"NA","US","US-IL","Chatham","no","00LL",,"00LL",,,
6545,"00LS","small_airport","Lejeune Airport",30.13629913330078,-92.42939758300781,12,"NA","US","US-LA","Esterwood","no","00LS",,"00LS",,,
6546,"00MD","small_airport","Slater Field",38.75709915161133,-75.75379943847656,45,"NA","US","US-MD","Federalsburg","no","00MD",,"00MD",,,
6547,"00MI","heliport","Dow Chemical Heliport",43.94940185546875,-86.41670227050781,588,"NA","US","US-MI","Ludington","no","00MI",,"00MI",,,
6548,"00MN","small_airport","Battle Lake Municipal Airport",46.29999923706055,-95.70030212402344,1365,"NA","US","US-MN","Battle Lake","no","00MN",,"00MN",,,
6549,"00MO","small_airport","Cooper Flying Service Airport",37.202800750732,-94.412399291992,970,"NA","US","US-MO","Alba","no","00MO",,"00MO",,,"5K8"
6550,"00MT","closed","Sands Ranch Airport",48.537498,-109.705002,2600,"NA","US","US-MT","Havre","no",,,,,,"00MT"
6551,"00N","small_airport","Bucks Airport",39.473201751708984,-75.1852035522461,105,"NA","US","US-NJ","Bridgeton","no","00N",,"00N",,,
6552,"00NC","small_airport","North Raleigh Airport",36.085201263427734,-78.37139892578125,348,"NA","US","US-NC","Louisburg","no","00NC",,"00NC",,,
6553,"00NJ","heliport","Colgate-Piscataway Heliport",40.52090072631836,-74.47460174560547,78,"NA","US","US-NJ","New Brunswick","no","00NJ",,"00NJ",,,
321919,"00NK","seaplane_base","Cliche Cove Seaplane Base",44.8118612,-73.3698057,96,"NA","US","US-NY","Beekmantown","no","00NK",,"00NK",,,
6554,"00NY","small_airport","Weiss Airfield",42.90010070800781,-77.49970245361328,1000,"NA","US","US-NY","West Bloomfield","no","00NY",,"00NY",,,
6555,"00OH","closed","Exit 3 Airport",41.590476,-84.141583,785,"NA","US","US-OH","Wauseon","no",,,,,,"64D, 00OH"
6556,"00OI","heliport","Miami Valley Hospital Heliport",39.74530029296875,-84.1874008178711,905,"NA","US","US-OH","Dayton","no","00OI",,"00OI",,,
328503,"00OK","small_airport","Gull Bay Landing Airport",36.198598,-96.217693,960,"NA","US","US-OK","Sandsprings","no","00OK",,"00OK",,,
6557,"00OR","heliport","Steel Systems Heliport",44.932899475097656,-123.12999725341797,195,"NA","US","US-OR","Salem","no","00OR",,"00OR",,,
6558,"00PA","heliport","R J D Heliport",39.94889831542969,-75.74690246582031,402,"NA","US","US-PA","Coatesville","no","00PA",,"00PA",,,
45773,"00PN","small_airport","Ferrell Field",41.2995,-80.211111,1301,"NA","US","US-PA","Mercer","no","00PN",,"00PN",,,
6559,"00PS","closed","Thomas Field",40.3778,-77.365303,815,"NA","US","US-PA","Loysville","no",,,,,,"00PS"
6560,"00S","small_airport","Mc Kenzie Bridge State Airport",44.183200836199994,-122.088996887,1620,"NA","US","US-OR","Mc Kenzie Bridge","no","00S",,"00S",,"https://en.wikipedia.org/wiki/McKenzie_Bridge_State_Airport",
6561,"00SC","small_airport","Flying O Airport",34.0093994140625,-80.26719665527344,150,"NA","US","US-SC","Sumter","no","00SC",,"00SC",,,
330391,"00SD","small_airport","Homan Field",44.809158,-96.498897,1590,"NA","US","US-SD","Gary","no","00SD",,"00SD",,,
6562,"00TA","heliport","Sw Region Faa Heliport",32.826900482177734,-97.30580139160156,598,"NA","US","US-TX","Fort Worth","no","00TA",,"00TA",,,6611,"01NC","small_airport","Topsail Airpark",34.47529983520508,-77.5813980102539,65,"NA","US","US-NC","Holly Ridge","no","01NC",,"01NC",,,
6612,"01NE","small_airport","Detour Airport",40.84360122680664,-100.65299987792969,3000,"NA","US","US-NE","Wellfleet","no","01NE",,"01NE",,,
6613,"01NH","small_airport","Moore Airfield",43.6445,-72.086998,835,"NA","US","US-NH","Canaan","no","01NH",,"01NH",,,"Enfield"
6614,"01NJ","heliport","Albert Guido Memorial Heliport",40.741798400878906,-74.13710021972656,10,"NA","US","US-NJ","Newark","no","01NJ",,"01NJ",,,
45537,"01NM","small_airport","Champion Ranch Airport",33.008611,-104.540278,3630,"NA","US","US-NM","Artesia","no","01NM",,"01NM",,,
6615,"01NV","small_airport","Lantana Ranch Airport",38.76390075683594,-119.0270004272461,4600,"NA","US","US-NV","Yerington","no","01NV",,"01NV",,,
6616,"01NY","closed","Vassar Hospital Heliport",41.694187,-73.935582,100,"NA","US","US-NY","Poughkeepsie","no",,,,,,"01NY"
6617,"01OI","heliport","Galion Community Hospital Heliport",40.73059844970703,-82.80159759521484,1140,"NA","US","US-OH","Galion","no","01OI",,"01OI",,,
6618,"01OK","closed","Lawrence Airport",35.294498,-98.636496,1525,"NA","US","US-OK","Eakly","no",,,,,,"01OK"
6619,"01OR","closed","Red & White Flying Service Airport",43.119301,-121.044997,4346,"NA","US","US-OR","Silver Lake","no",,,,,,"01OR"
6620,"01PA","closed","Pine Heliport",40.655602,-80.050903,1215,"NA","US","US-PA","Mars","no",,,,,,"01PA"
6621,"01PN","small_airport","Bierly(Personal Use) Airport",40.930599212646484,-77.73889923095703,960,"NA","US","US-PA","Bellefonte","no","01PN",,"01PN",,,
6622,"01PS","small_airport","Nort's Resort Airport",41.59590148925781,-76.02960205078125,1040,"NA","US","US-PA","Meshoppen","no","01PS",,"01PS",,,
6623,"01SC","small_airport","York Airport",35.032100677490234,-81.25279998779297,779,"NA","US","US-SC","York","no","01SC",,"01SC",,,
6624,"01TA","heliport","Thirty Thirty Matlock Office Center Heliport",32.69419860839844,-97.11579895019531,630,"NA","US","US-TX","Arlington","no","01TA",,"01TA",,,
6625,"01TE","small_airport","Smith Field",32.73759841918945,-96.4280014038086,505,"NA","US","US-TX","Forney","no","01TE",,"01TE",,,
6626,"01TN","small_airport","Colonial Air Park",34.99589920043945,-89.73059844970703,370,"NA","US","US-TN","Collierville","no","01TN",,"01TN",,,
6627,"01TS","closed","St Joseph Hospital Heliport",32.7285,-97.324501,675,"NA","US","US-TX","Fort Worth","no",,,,,,"01TS"
6628,"01TX","small_airport","Mims Farm Ultralightport",32.38759994506836,-96.87750244140625,610,"NA","US","US-TX","Waxahachie","no","01TX",,"01TX",,,
6629,"01U","small_airport","Duckwater Airport",38.851600646972656,-115.63400268554688,5124,"NA","US","US-NV","Duckwater","no","01U",,"01U",,,
6630,"01UT","small_airport","La Sal Junction Airport",38.30830001831055,-109.39600372314453,6000,"NA","US","US-UT","La Sal","no","01UT",,"01UT",,,
6631,"01VA","small_airport","Pickles Airport",39.125,-77.9250030518,500,"NA","US","US-VA","Berryville","no","01VA",,"01VA",,,
6632,"01WA","heliport","Willapa Harbor Heliport",46.66320037841797,-123.81199645996094,154,"NA","US","US-WA","South Bend","no","01WA",,"01WA",,,
6633,"01WI","small_airport","Prehn Cranberry Company Airport",44.0099983215332,-90.38919830322266,930,"NA","US","US-WI","Tomah","no","01WI",,"01WI",,,
6634,"01WN","heliport","Whidbey General Hospital Heliport",48.213401794433594,-122.68499755859375,103,"NA","US","US-WA","Coupeville","no","01WN",,"01WN",,,
45900,"01WT","heliport","Odyssey Heliport",47.518178,-122.210908,20,"NA","US","US-WA","Renton","no","01WT",,"01WT",,,
6635,"01WY","small_airport","Keyhole Airport",44.347198486328125,-104.81099700927734,4250,"NA","US","US-WY","Moorcroft","no","01WY",,"01WY",,,
46288,"01XA","heliport","Seton Medical Center Hays Heliport",30.007222,-97.853333,715,"NA","US","US-TX","Kyle","no","01XA",,"01XA",,,
6636,"01XS","heliport","Meadowood Ranch Heliport",32.020198822021484,-95.74549865722656,500,"NA","US","US-TX","Athens","no","01XS",,"01XS",,,
6637,"02AK","small_airport","Rustic Wilderness Airport",61.87689971923828,-150.09800720214844,190,"NA","US","US-AK","Willow","no","02AK",,"02AK",,,
6638,"02AL","small_airport","Bass Field",30.37150001525879,-87.76439666748047,61,"NA","US","US-AL","Foley","no","02AL",,"02AL",,,
43030,"02AR","closed","Three Rivers Airport",34.822445,-92.44442,264,"NA","US","US-AR","Little Rock","no",,,,,,"02AR"
6640,"02AZ","closed","Winchester Farm Airstrip",32.376401,-109.936996,4200,"NA","US","US-AZ","Willcox","no",,,,,,"02AZ"
6641,"02CA","heliport","Swepi Beta Platform Ellen Heliport",33.58250045776367,-118.12899780273438,122,"NA","US","US-CA","Huntington Beach","no","02CA",,"02CA",,,
6642,"02CD","small_airport","Shannon Field",34.129600524902344,-90.52400207519531,165,"NA","US","US-MS","Clarksdale","no","02CD",,"02CD",,,
6643,"02CL","small_airport","Conover Air Lodge Airport",34.761101,-119.058998,5160,"NA","US","US-CA","Frazier Park","no","02CL",,"02CL",,,"04L"
6644,"02CO","small_airport","Mc Cullough Airport",37.64329910279999,-106.04699707,7615,"NA","US","US-CO","Monte Vista","no","02CO",,"02CO",,,
6645,"02CT","heliport","Strangers Point Heliport",41.91960144042969,-72.44450378417969,540,"NA","US","US-CT","Ellington","no","02CT",,"02CT",,,
6646,"02FA","small_airport","Osborn Airfield",28.52669906616211,-81.87480163574219,121,"NA","US","US-FL","Groveland","no","02FA",,"02FA",,,
45347,"02FL","closed","Cuchens Airport",30.642527,-86.118779,215,"NA","US","US-FL","Defuniak Springs","no",,,,,,"02FL"
6648,"02GA","small_airport","Doug Bolton Field",34.202598571777344,-83.42900085449219,884,"NA","US","US-GA","Commerce","no","02GA",,"02GA",,,
6649,"02GE","small_airport","Etowah Fields Airport",34.17530059814453,-84.92440032958984,710,"NA","US","US-GA","Euharlee","no","02GE",,"02GE",,,
6650,"02HI","heliport","K3 Helipad Heliport",21.36199951171875,-157.9510040283203,9,"NA","US","US-HI","Pearl Harbor","no","02HI",,"02HI",,,
6651,"02IA","heliport","Boone County Hospital Heliport",42.05609893798828,-93.87799835205078,1160,"NA","US","US-IA","Boone","no","02IA",,"02IA",,,
6652,"02ID","small_airport","Morgan Ranch Airport",44.55550003051758,-115.30500030517578,5634,"NA","US","US-ID","Cascade","no","02ID",,"02ID",,,
6653,"02II","small_airport","King Ultralightport",40.06230163574219,-86.21050262451172,925,"NA","US","US-IN","Westfield","no","02II",,"02II",,,
6654,"02IN","small_airport","Diamond P. Field",40.208900451660156,-85.54080200195312,904,"NA","US","US-IN","Muncie","no","02IN",,"02IN",,,
6655,"02IS","heliport","Condell Medical Center Heliport",42.274600982666016,-87.9572982788086,762,"NA","US","US-IL","Libertyville","no","02IS",,"02IS",,,
6656,"02KS","small_airport","Jmj Landing Airport",39.222198486328125,-96.0552978515625,1170,"NA","US","US-KS","St Marys","no","02KS",,"02KS",,,
327110,"02KT","heliport","St Claire Healthcare Heliport",38.181441,-83.443319,781,"NA","US","US-KY","Morehead","no","02KT",,"02KT",,,
6657,"02KY","heliport","Boone National Guard Heliport",38.18339920043945,-84.89990234375,760,"NA","US","US-KY","Frankfort","no","02KY",,"02KY",,,